{
"type": "FeatureCollection",
"crs": { "type": "name", "properties": { "name": "urn:ogc:def:crs:OGC:1.3:CRS84" } },
"features": [
{ "type": "Feature", "properties": { "ANZAHL": "1", "BEMERKUNG": "Durchgehend", "ORTSTEIL": "Friedrichshain", "PLZ": "10245", "STANDORT": "Alt - Stralau 32 b" }, "geometry": { "type": "Point", "coordinates": [ 13.47776149, 52.49257616 ] } },
{ "type": "Feature", "properties": { "ANZAHL": "1", "BEMERKUNG": "Mo-Fr 7-20.30h", "ORTSTEIL": "Friedrichshain", "PLZ": "10245", "STANDORT": "Alt - Stralau 61" }, "geometry": { "type": "Point", "coordinates": [ 13.46786062, 52.49572698 ] } },
{ "type": "Feature", "properties": { "ANZAHL": "1", "BEMERKUNG": "Mo-Fr 7-17h", "ORTSTEIL": "Kreuzberg", "PLZ": "10969", "STANDORT": "Alte Jakobstraße 149" }, "geometry": { "type": "Point", "coordinates": [ 13.39624932, 52.49921288 ] } },
{ "type": "Feature", "properties": { "ANZAHL": "1", "BEMERKUNG": "Mo-Fr 10-21h", "ORTSTEIL": "Kreuzberg", "PLZ": "10969", "STANDORT": "Axel-Springer-Straße 40/41" }, "geometry": { "type": "Point", "coordinates": [ 13.39886874, 52.50771564 ] } },
{ "type": "Feature", "properties": { "ANZAHL": "1", "BEMERKUNG": "Mo-Fr 8-18h", "ORTSTEIL": "Kreuzberg", "PLZ": "10969", "STANDORT": "Axel-Springer-Straße 44" }, "geometry": { "type": "Point", "coordinates": [ 13.39943428, 52.50848042 ] } },
{ "type": "Feature", "properties": { "ANZAHL": "1", "BEMERKUNG": "Mo-Fr 8-17h", "ORTSTEIL": "Friedrichshain", "PLZ": "10247", "STANDORT": "Bänschstraße 74" }, "geometry": { "type": "Point", "coordinates": [ 13.46872197, 52.51747431 ] } },
{ "type": "Feature", "properties": { "ANZAHL": "1", "BEMERKUNG": "Mo-Fr 8-16h", "ORTSTEIL": "Friedrichshain", "PLZ": "10249", "STANDORT": "Barnimstraße 18" }, "geometry": { "type": "Point", "coordinates": [ 13.42246379, 52.52616297 ] } },
{ "type": "Feature", "properties": { "ANZAHL": "1", "BEMERKUNG": "Durchgehend", "ORTSTEIL": "Friedrichshain", "PLZ": "10249", "STANDORT": "Barnimstraße 18" }, "geometry": { "type": "Point", "coordinates": [ 13.42259871, 52.52608169 ] } },
{ "type": "Feature", "properties": { "ANZAHL": "1", "BEMERKUNG": "Durchgehend", "ORTSTEIL": "Kreuzberg", "PLZ": "10961", "STANDORT": "Bergmannstraße 25" }, "geometry": { "type": "Point", "coordinates": [ 13.39478513, 52.4890609 ] } },
{ "type": "Feature", "properties": { "ANZAHL": "1", "BEMERKUNG": "Mo-Fr 8-18h", "ORTSTEIL": "Kreuzberg", "PLZ": "10963", "STANDORT": "Bernburger Straße 30-31" }, "geometry": { "type": "Point", "coordinates": [ 13.37977274, 52.50496524 ] } },
{ "type": "Feature", "properties": { "ANZAHL": "1", "BEMERKUNG": "Durchgehend", "ORTSTEIL": "Kreuzberg", "PLZ": "10961", "STANDORT": "Blücherplatz 1" }, "geometry": { "type": "Point", "coordinates": [ 13.39240943, 52.49707004 ] } },
{ "type": "Feature", "properties": { "ANZAHL": "3", "BEMERKUNG": "Durchgehend", "ORTSTEIL": "Kreuzberg", "PLZ": "10961", "STANDORT": "Blücherplatz 3" }, "geometry": { "type": "Point", "coordinates": [ 13.39142108, 52.49705741 ] } },
{ "type": "Feature", "properties": { "ANZAHL": "1", "BEMERKUNG": "Mo-Fr 8-19h", "ORTSTEIL": "Kreuzberg", "PLZ": "10961", "STANDORT": "Blücherstraße 39" }, "geometry": { "type": "Point", "coordinates": [ 13.404989, 52.49061355 ] } },
{ "type": "Feature", "properties": { "ANZAHL": "2", "BEMERKUNG": "Mo-Fr 8-18h", "ORTSTEIL": "Kreuzberg", "PLZ": "10961", "STANDORT": "Blücherstraße 62" }, "geometry": { "type": "Point", "coordinates": [ 13.3983479, 52.49506311 ] } },
{ "type": "Feature", "properties": { "ANZAHL": "1", "BEMERKUNG": "Durchgehend", "ORTSTEIL": "Kreuzberg", "PLZ": "10967", "STANDORT": "Böckhstraße 16" }, "geometry": { "type": "Point", "coordinates": [ 13.41920619, 52.49357828 ] } },
{ "type": "Feature", "properties": { "ANZAHL": "1", "BEMERKUNG": "Durchgehend", "ORTSTEIL": "Kreuzberg", "PLZ": "10967", "STANDORT": "Böckhstraße Höhe 43 / Ecke Graefestraße 83" }, "geometry": { "type": "Point", "coordinates": [ 13.41866899, 52.49381474 ] } },
{ "type": "Feature", "properties": { "ANZAHL": "2", "BEMERKUNG": "Sa 8-16h, So 9-18h", "ORTSTEIL": "Friedrichshain", "PLZ": "10245", "STANDORT": "Boxhagener Platz / Krossener Straße" }, "geometry": { "type": "Point", "coordinates": [ 13.46037389, 52.51027682 ] } },
{ "type": "Feature", "properties": { "ANZAHL": "1", "BEMERKUNG": "(täglich) 9-22h", "ORTSTEIL": "Friedrichshain", "PLZ": "10245", "STANDORT": "Boxhagener Straße 89" }, "geometry": { "type": "Point", "coordinates": [ 13.46466567, 52.50989714 ] } },
{ "type": "Feature", "properties": { "ANZAHL": "1", "BEMERKUNG": "Mo-Fr 7-17h", "ORTSTEIL": "Kreuzberg", "PLZ": "10969", "STANDORT": "Charlottenstraße 13" }, "geometry": { "type": "Point", "coordinates": [ 13.39245598, 52.50696453 ] } },
{ "type": "Feature", "properties": { "ANZAHL": "1", "BEMERKUNG": "Durchgehend", "ORTSTEIL": "Friedrichshain", "PLZ": "10243", "STANDORT": "Erich-Steinfurt-Straße (Ostbahnhof)" }, "geometry": { "type": "Point", "coordinates": [ 13.43418422, 52.51143776 ] } },
{ "type": "Feature", "properties": { "ANZAHL": "1", "BEMERKUNG": "Mo-Fr 12-18h", "ORTSTEIL": "Kreuzberg", "PLZ": "10997", "STANDORT": "Falckensteinstraße 42" }, "geometry": { "type": "Point", "coordinates": [ 13.44337267, 52.4994602 ] } },
{ "type": "Feature", "properties": { "ANZAHL": "2", "BEMERKUNG": "Mo-Fr 8-18h", "ORTSTEIL": "Friedrichshain", "PLZ": "10247", "STANDORT": "Finowstraße 1" }, "geometry": { "type": "Point", "coordinates": [ 13.46949851, 52.51400245 ] } },
{ "type": "Feature", "properties": { "ANZAHL": "1", "BEMERKUNG": "Mo-Fr  7-16h", "ORTSTEIL": "Kreuzberg", "PLZ": "10999", "STANDORT": "Forster Straße 45" }, "geometry": { "type": "Point", "coordinates": [ 13.43256871, 52.49442546 ] } },
{ "type": "Feature", "properties": { "ANZAHL": "2", "BEMERKUNG": "Mo - Fr 9-18h, Sa 9-14h", "ORTSTEIL": "Friedrichshain", "PLZ": "10247", "STANDORT": "Frankfurter Allee 35 (vor Bezirksamt)" }, "geometry": { "type": "Point", "coordinates": [ 13.4615994, 52.51515864 ] } },
{ "type": "Feature", "properties": { "ANZAHL": "1", "BEMERKUNG": "Mo-Do 7-19h, Fr 7-16h", "ORTSTEIL": "Friedrichshain", "PLZ": "10247", "STANDORT": "Frankfurter Allee 63" }, "geometry": { "type": "Point", "coordinates": [ 13.46679495, 52.51463276 ] } },
{ "type": "Feature", "properties": { "ANZAHL": "1", "BEMERKUNG": "Do-So 15-22h", "ORTSTEIL": "Friedrichshain", "PLZ": "10247", "STANDORT": "Frankfurter Allee 93" }, "geometry": { "type": "Point", "coordinates": [ 13.47214057, 52.51409093 ] } },
{ "type": "Feature", "properties": { "ANZAHL": "2", "BEMERKUNG": "Mo-Fr 9-16h", "ORTSTEIL": "Kreuzberg", "PLZ": "10969", "STANDORT": "Franz-Klühs-Straße (hinter Friedrichstr.)" }, "geometry": { "type": "Point", "coordinates": [ 13.39199278, 52.5009414 ] } },
{ "type": "Feature", "properties": { "ANZAHL": "1", "BEMERKUNG": "Mo-Fr 7-16h", "ORTSTEIL": "Friedrichshain", "PLZ": "10249", "STANDORT": "Friedenstraße o.Nr. (Rückwärtig Pl.d.V.N. 1)" }, "geometry": { "type": "Point", "coordinates": [ 13.431299, 52.52440376 ] } },
{ "type": "Feature", "properties": { "ANZAHL": "1", "BEMERKUNG": "Mo-Fr 9-18h, Sa 9-14h", "ORTSTEIL": "Friedrichshain", "PLZ": "10247", "STANDORT": "Silvio-Meier-Str. 16" }, "geometry": { "type": "Point", "coordinates": [ 13.4628487, 52.51514358 ] } },
{ "type": "Feature", "properties": { "ANZAHL": "2", "BEMERKUNG": "Mo-Fr 8-20h", "ORTSTEIL": "Friedrichshain", "PLZ": "10247", "STANDORT": "Glatzer Straße 5" }, "geometry": { "type": "Point", "coordinates": [ 13.46618565, 52.50986024 ] } },
{ "type": "Feature", "properties": { "ANZAHL": "2", "BEMERKUNG": "Mo-Fr  6-18h", "ORTSTEIL": "Kreuzberg", "PLZ": "10999", "STANDORT": "Glogauer Straße 21" }, "geometry": { "type": "Point", "coordinates": [ 13.43650873, 52.49246146 ] } },
{ "type": "Feature", "properties": { "ANZAHL": "1", "BEMERKUNG": "Mo-Fr 9-21h", "ORTSTEIL": "Kreuzberg", "PLZ": "10961", "STANDORT": "Gneisenaustraße 3" }, "geometry": { "type": "Point", "coordinates": [ 13.38862198, 52.49254367 ] } },
{ "type": "Feature", "properties": { "ANZAHL": "1", "BEMERKUNG": "Mo-Fr  8-18h", "ORTSTEIL": "Kreuzberg", "PLZ": "10961", "STANDORT": "Gneisenaustraße 62" }, "geometry": { "type": "Point", "coordinates": [ 13.4031479, 52.48999461 ] } },
{ "type": "Feature", "properties": { "ANZAHL": "1", "BEMERKUNG": "Durchgehend", "ORTSTEIL": "Kreuzberg", "PLZ": "10997", "STANDORT": "Görlitzer Park" }, "geometry": { "type": "Point", "coordinates": [ 13.4362162, 52.49788969 ] } },
{ "type": "Feature", "properties": { "ANZAHL": "2", "BEMERKUNG": "Mo-Fr 9-18h", "ORTSTEIL": "Kreuzberg", "PLZ": "10963", "STANDORT": "Großbeerenstraße 15" }, "geometry": { "type": "Point", "coordinates": [ 13.38471075, 52.49744455 ] } },
{ "type": "Feature", "properties": { "ANZAHL": "1", "BEMERKUNG": "Mo-Fr 8.30-18h", "ORTSTEIL": "Kreuzberg", "PLZ": "10965", "STANDORT": "Großbeerenstraße 58" }, "geometry": { "type": "Point", "coordinates": [ 13.38335851, 52.49290848 ] } },
{ "type": "Feature", "properties": { "ANZAHL": "2", "BEMERKUNG": "(täglich) 19-23h", "ORTSTEIL": "Kreuzberg", "PLZ": "10963", "STANDORT": "Großbeerenstraße 87" }, "geometry": { "type": "Point", "coordinates": [ 13.38545967, 52.49915425 ] } },
{ "type": "Feature", "properties": { "ANZAHL": "1", "BEMERKUNG": "Mo-Fr 8-18h", "ORTSTEIL": "Friedrichshain", "PLZ": "10243", "STANDORT": "Grünberger Straße 25" }, "geometry": { "type": "Point", "coordinates": [ 13.45168005, 52.51265233 ] } },
{ "type": "Feature", "properties": { "ANZAHL": "2", "BEMERKUNG": "Mo-Fr 7-20h", "ORTSTEIL": "Friedrichshain", "PLZ": "10245", "STANDORT": "Grünberger Straße 43 - 45" }, "geometry": { "type": "Point", "coordinates": [ 13.4548038, 52.51213607 ] } },
{ "type": "Feature", "properties": { "ANZAHL": "1", "BEMERKUNG": "werktags 7-18h", "ORTSTEIL": "Friedrichshain", "PLZ": "10243", "STANDORT": "Gubener Straße 49" }, "geometry": { "type": "Point", "coordinates": [ 13.44818468, 52.51246625 ] } },
{ "type": "Feature", "properties": { "ANZAHL": "1", "BEMERKUNG": "Mo-Fr 13-19h", "ORTSTEIL": "Friedrichshain", "PLZ": "10243", "STANDORT": "Gubener Straße 50" }, "geometry": { "type": "Point", "coordinates": [ 13.44803108, 52.51266311 ] } },
{ "type": "Feature", "properties": { "ANZAHL": "1", "BEMERKUNG": "Mo-Fr 8-19h", "ORTSTEIL": "Kreuzberg", "PLZ": "10965", "STANDORT": "Hagelberger Straße 19 A" }, "geometry": { "type": "Point", "coordinates": [ 13.38205871, 52.49164143 ] } },
{ "type": "Feature", "properties": { "ANZAHL": "1", "BEMERKUNG": "Durchgehend", "ORTSTEIL": "Kreuzberg", "PLZ": "10965", "STANDORT": "Hagelberger Straße 34" }, "geometry": { "type": "Point", "coordinates": [ 13.38081024, 52.491618 ] } },
{ "type": "Feature", "properties": { "ANZAHL": "1", "BEMERKUNG": "Durchgehend", "ORTSTEIL": "Kreuzberg", "PLZ": "10965", "STANDORT": "Hagelberger Straße 8" }, "geometry": { "type": "Point", "coordinates": [ 13.384951, 52.4914705 ] } },
{ "type": "Feature", "properties": { "ANZAHL": "1", "BEMERKUNG": "Mo-Do 8-18h, Fr 8-13h", "ORTSTEIL": "Kreuzberg", "PLZ": "10967", "STANDORT": "Hasenheide 66" }, "geometry": { "type": "Point", "coordinates": [ 13.40964911, 52.48867634 ] } },
{ "type": "Feature", "properties": { "ANZAHL": "2", "BEMERKUNG": "Mo-Fr 8-20h", "ORTSTEIL": "Kreuzberg", "PLZ": "10997", "STANDORT": "Heckmannufer 3 A - 4" }, "geometry": { "type": "Point", "coordinates": [ 13.44765748, 52.49703712 ] } },
{ "type": "Feature", "properties": { "ANZAHL": "1", "BEMERKUNG": "Mo-Fr 7-18h", "ORTSTEIL": "Kreuzberg", "PLZ": "10965", "STANDORT": "Jüterboger Straße 3" }, "geometry": { "type": "Point", "coordinates": [ 13.3979406, 52.48634766 ] } },
{ "type": "Feature", "properties": { "ANZAHL": "1", "BEMERKUNG": "Mo-Fr 8-18h, Sa 9-16h", "ORTSTEIL": "Friedrichshain", "PLZ": "10243", "STANDORT": "Karl-Marx-Allee 54" }, "geometry": { "type": "Point", "coordinates": [ 13.42974568, 52.51814543 ] } },
{ "type": "Feature", "properties": { "ANZAHL": "1", "BEMERKUNG": "Mo-Fr 9-18h", "ORTSTEIL": "Friedrichshain", "PLZ": "10243", "STANDORT": "Karl-Marx-Allee 90 A" }, "geometry": { "type": "Point", "coordinates": [ 13.44114898, 52.51697298 ] } },
{ "type": "Feature", "properties": { "ANZAHL": "1", "BEMERKUNG": "Mo Fr 8-16h", "ORTSTEIL": "Kreuzberg", "PLZ": "10963", "STANDORT": "Kleinbeerenstraße o.Nr." }, "geometry": { "type": "Point", "coordinates": [ 13.38158073, 52.50053224 ] } },
{ "type": "Feature", "properties": { "ANZAHL": "1", "BEMERKUNG": "Mo-Fr 6-18h", "ORTSTEIL": "Kreuzberg", "PLZ": "10999", "STANDORT": "Kohlfurter Straße 10" }, "geometry": { "type": "Point", "coordinates": [ 13.41478928, 52.49760028 ] } },
{ "type": "Feature", "properties": { "ANZAHL": "1", "BEMERKUNG": "Mo-Fr 6-18h", "ORTSTEIL": "Kreuzberg", "PLZ": "10999", "STANDORT": "Kohlfurter Straße 10" }, "geometry": { "type": "Point", "coordinates": [ 13.41496009, 52.49755716 ] } },
{ "type": "Feature", "properties": { "ANZAHL": "1", "BEMERKUNG": "Mo-Fr 7-17h", "ORTSTEIL": "Friedrichshain", "PLZ": "10243", "STANDORT": "Koppenstraße 38 / 40" }, "geometry": { "type": "Point", "coordinates": [ 13.43696394, 52.51861263 ] } },
{ "type": "Feature", "properties": { "ANZAHL": "2", "BEMERKUNG": "(täglich) 9-20h", "ORTSTEIL": "Kreuzberg", "PLZ": "10969", "STANDORT": "Lindenstraße 15" }, "geometry": { "type": "Point", "coordinates": [ 13.39517404, 52.50282575 ] } },
{ "type": "Feature", "properties": { "ANZAHL": "2", "BEMERKUNG": "Mo-Fr 8-18h", "ORTSTEIL": "Kreuzberg", "PLZ": "10969", "STANDORT": "Lindenstraße 19 c" }, "geometry": { "type": "Point", "coordinates": [ 13.39572647, 52.50344119 ] } },
{ "type": "Feature", "properties": { "ANZAHL": "3", "BEMERKUNG": "Durchgehend", "ORTSTEIL": "Friedrichshain", "PLZ": "10243", "STANDORT": "Marchlewskistraße 4 / 6" }, "geometry": { "type": "Point", "coordinates": [ 13.442432, 52.51632438 ] } },
{ "type": "Feature", "properties": { "ANZAHL": "1", "BEMERKUNG": "Durchgehend", "ORTSTEIL": "Kreuzberg", "PLZ": "10961", "STANDORT": "Marheinekeplatz ggü. 3-4" }, "geometry": { "type": "Point", "coordinates": [ 13.39688084, 52.48923625 ] } },
{ "type": "Feature", "properties": { "ANZAHL": "2", "BEMERKUNG": "Mo-Do 8-17h, Fr 8-15h", "ORTSTEIL": "Kreuzberg", "PLZ": "10969", "STANDORT": "Markgrafenstraße 18" }, "geometry": { "type": "Point", "coordinates": [ 13.39452839, 52.50644186 ] } },
{ "type": "Feature", "properties": { "ANZAHL": "1", "BEMERKUNG": "Mo-Fr 9-18h", "ORTSTEIL": "Kreuzberg", "PLZ": "10967", "STANDORT": "Urbanstraße 24" }, "geometry": { "type": "Point", "coordinates": [ 13.41037571, 52.49247916 ] } },
{ "type": "Feature", "properties": { "ANZAHL": "1", "BEMERKUNG": "Mo-Fr 6.30-20h", "ORTSTEIL": "Friedrichshain", "PLZ": "10249", "STANDORT": "Matthiasstraße 10" }, "geometry": { "type": "Point", "coordinates": [ 13.44044336, 52.52291567 ] } },
{ "type": "Feature", "properties": { "ANZAHL": "3", "BEMERKUNG": "Durchgehend", "ORTSTEIL": "Friedrichshain", "PLZ": "10249", "STANDORT": "Max-Flettling-Platz (Ernst-Zinna-Weg)" }, "geometry": { "type": "Point", "coordinates": [ 13.43704567, 52.52546141 ] } },
{ "type": "Feature", "properties": { "ANZAHL": "1", "BEMERKUNG": "Mo-Fr 8-18h", "ORTSTEIL": "Kreuzberg", "PLZ": "10961", "STANDORT": "Mehringdamm 22" }, "geometry": { "type": "Point", "coordinates": [ 13.38877548, 52.49466563 ] } },
{ "type": "Feature", "properties": { "ANZAHL": "1", "BEMERKUNG": "Mo-Fr 9-18h, Sa 9-13h", "ORTSTEIL": "Kreuzberg", "PLZ": "10961", "STANDORT": "Mehringdamm 35" }, "geometry": { "type": "Point", "coordinates": [ 13.38812346, 52.49321303 ] } },
{ "type": "Feature", "properties": { "ANZAHL": "1", "BEMERKUNG": "Mo-Fr 9-18h", "ORTSTEIL": "Kreuzberg", "PLZ": "10963", "STANDORT": "Möckernstraße 100" }, "geometry": { "type": "Point", "coordinates": [ 13.37965795, 52.49395494 ] } },
{ "type": "Feature", "properties": { "ANZAHL": "1", "BEMERKUNG": "Durchgehend", "ORTSTEIL": "Kreuzberg", "PLZ": "10965", "STANDORT": "Möckernstraße 69" }, "geometry": { "type": "Point", "coordinates": [ 13.37925953, 52.49036098 ] } },
{ "type": "Feature", "properties": { "ANZAHL": "1", "BEMERKUNG": "Mo-Fr 7-19h", "ORTSTEIL": "Friedrichshain", "PLZ": "10245", "STANDORT": "Neue Bahnhofstraße 4" }, "geometry": { "type": "Point", "coordinates": [ 13.4694771, 52.50526474 ] } },
{ "type": "Feature", "properties": { "ANZAHL": "1", "BEMERKUNG": "Mo-Fr 9-20h", "ORTSTEIL": "Kreuzberg", "PLZ": "10963", "STANDORT": "Obentrautstraße 55" }, "geometry": { "type": "Point", "coordinates": [ 13.38230519, 52.49700407 ] } },
{ "type": "Feature", "properties": { "ANZAHL": "1", "BEMERKUNG": "Mo-Fr 9-20h", "ORTSTEIL": "Kreuzberg", "PLZ": "10997", "STANDORT": "Oppelner Straße 46/47" }, "geometry": { "type": "Point", "coordinates": [ 13.44141242, 52.50027136 ] } },
{ "type": "Feature", "properties": { "ANZAHL": "2", "BEMERKUNG": "Mo-Fr 6-19.30h", "ORTSTEIL": "Kreuzberg", "PLZ": "10969", "STANDORT": "Oranienstraße 106" }, "geometry": { "type": "Point", "coordinates": [ 13.40047407, 52.50642829 ] } },
{ "type": "Feature", "properties": { "ANZAHL": "1", "BEMERKUNG": "Mo-Fr 7-19h", "ORTSTEIL": "Kreuzberg", "PLZ": "10969", "STANDORT": "Oranienstraße 158" }, "geometry": { "type": "Point", "coordinates": [ 13.41306863, 52.50294418 ] } },
{ "type": "Feature", "properties": { "ANZAHL": "1", "BEMERKUNG": "Durchgehend", "ORTSTEIL": "Kreuzberg", "PLZ": "10999", "STANDORT": "Oranienstraße 192 (Heinrichplatz)" }, "geometry": { "type": "Point", "coordinates": [ 13.42263644, 52.50018803 ] } },
{ "type": "Feature", "properties": { "ANZAHL": "1", "BEMERKUNG": "Mo-Fr 7-15h", "ORTSTEIL": "Kreuzberg", "PLZ": "10999", "STANDORT": "Oranienstraße 26" }, "geometry": { "type": "Point", "coordinates": [ 13.42042095, 52.5010169 ] } },
{ "type": "Feature", "properties": { "ANZAHL": "1", "BEMERKUNG": "Mo-Fr 8-17h", "ORTSTEIL": "Kreuzberg", "PLZ": "10969", "STANDORT": "Oranienstraße 56" }, "geometry": { "type": "Point", "coordinates": [ 13.41172778, 52.50340924 ] } },
{ "type": "Feature", "properties": { "ANZAHL": "1", "BEMERKUNG": "Mo-Fr 10-20h", "ORTSTEIL": "Friedrichshain", "PLZ": "10243", "STANDORT": "Palisadenstraße 46" }, "geometry": { "type": "Point", "coordinates": [ 13.43943535, 52.51852254 ] } },
{ "type": "Feature", "properties": { "ANZAHL": "4", "BEMERKUNG": "Mo-Fr 6-8h, 13-15h", "ORTSTEIL": "Kreuzberg", "PLZ": "10999", "STANDORT": "Paul-Lincke-Ufer 42/43" }, "geometry": { "type": "Point", "coordinates": [ 13.42137004, 52.49611982 ] } },
{ "type": "Feature", "properties": { "ANZAHL": "2", "BEMERKUNG": "Mo-Fr 8-18h", "ORTSTEIL": "Friedrichshain", "PLZ": "10247", "STANDORT": "Petersburger Straße 90" }, "geometry": { "type": "Point", "coordinates": [ 13.45308508, 52.51754341 ] } },
{ "type": "Feature", "properties": { "ANZAHL": "4", "BEMERKUNG": "Mo-Fr 7-18h", "ORTSTEIL": "Friedrichshain", "PLZ": "10247", "STANDORT": "Pettenkofer Straße 1" }, "geometry": { "type": "Point", "coordinates": [ 13.47347919, 52.51440394 ] } },
{ "type": "Feature", "properties": { "ANZAHL": "1", "BEMERKUNG": "Mo-Fr 9-18h, Sa 9-14h", "ORTSTEIL": "Friedrichshain", "PLZ": "10247", "STANDORT": "Proskauer Straße 1" }, "geometry": { "type": "Point", "coordinates": [ 13.46042803, 52.51546492 ] } },
{ "type": "Feature", "properties": { "ANZAHL": "1", "BEMERKUNG": "Mo-Fr 9-18h, Sa 9-14h", "ORTSTEIL": "Friedrichshain", "PLZ": "10247", "STANDORT": "Proskauer Straße 17 A" }, "geometry": { "type": "Point", "coordinates": [ 13.4622085, 52.51903869 ] } },
{ "type": "Feature", "properties": { "ANZAHL": "1", "BEMERKUNG": "Mo-Fr 9-18h", "ORTSTEIL": "Friedrichshain", "PLZ": "10247", "STANDORT": "Proskauer Straße 30" }, "geometry": { "type": "Point", "coordinates": [ 13.46091168, 52.51696439 ] } },
{ "type": "Feature", "properties": { "ANZAHL": "1", "BEMERKUNG": "Mo-So 9-21h", "ORTSTEIL": "Friedrichshain", "PLZ": "10249", "STANDORT": "Pufendorfstraße 11" }, "geometry": { "type": "Point", "coordinates": [ 13.43749204, 52.52123463 ] } },
{ "type": "Feature", "properties": { "ANZAHL": "2", "BEMERKUNG": "Mo-Fr 7.30-18h", "ORTSTEIL": "Kreuzberg", "PLZ": "10969", "STANDORT": "Puttkamer Straße 16" }, "geometry": { "type": "Point", "coordinates": [ 13.38939715, 52.50447921 ] } },
{ "type": "Feature", "properties": { "ANZAHL": "1", "BEMERKUNG": "Durchgehend", "ORTSTEIL": "Kreuzberg", "PLZ": "10999", "STANDORT": "Reichenberger Straße 130" }, "geometry": { "type": "Point", "coordinates": [ 13.42984019, 52.49574007 ] } },
{ "type": "Feature", "properties": { "ANZAHL": "2", "BEMERKUNG": "Mo-Fr 8-19h, Sa 8-16h", "ORTSTEIL": "Friedrichshain", "PLZ": "10243", "STANDORT": "Revaler Straße 1 - 2" }, "geometry": { "type": "Point", "coordinates": [ 13.44999689, 52.50862085 ] } },
{ "type": "Feature", "properties": { "ANZAHL": "1", "BEMERKUNG": "Sonn- u. Feiertags 10-13h", "ORTSTEIL": "Friedrichshain", "PLZ": "10249", "STANDORT": "Richard-Sorge-Straße 14-15" }, "geometry": { "type": "Point", "coordinates": [ 13.44846539, 52.51889086 ] } },
{ "type": "Feature", "properties": { "ANZAHL": "1", "BEMERKUNG": "Mo-Fr 8.30-18h, Sa 9-11h", "ORTSTEIL": "Friedrichshain", "PLZ": "10247", "STANDORT": "Rigaer Straße 27" }, "geometry": { "type": "Point", "coordinates": [ 13.46263994, 52.51678667 ] } },
{ "type": "Feature", "properties": { "ANZAHL": "1", "BEMERKUNG": "Mo-Fr 8-18h + Zusatz Parkscheibe 2h", "ORTSTEIL": "Kreuzberg", "PLZ": "10969", "STANDORT": "Ritterstraße 3" }, "geometry": { "type": "Point", "coordinates": [ 13.41280531, 52.50074632 ] } },
{ "type": "Feature", "properties": { "ANZAHL": "1", "BEMERKUNG": "Mo-Fr 8-18h", "ORTSTEIL": "Kreuzberg", "PLZ": "10969", "STANDORT": "Rudi-Dutschke-Straße 1" }, "geometry": { "type": "Point", "coordinates": [ 13.39689895, 52.50706538 ] } },
{ "type": "Feature", "properties": { "ANZAHL": "1", "BEMERKUNG": "Mo-Fr 6-18h", "ORTSTEIL": "Friedrichshain", "PLZ": "10245", "STANDORT": "Rudolfstraße 9-10" }, "geometry": { "type": "Point", "coordinates": [ 13.45298361, 52.50428731 ] } },
{ "type": "Feature", "properties": { "ANZAHL": "1", "BEMERKUNG": "Durchgehend", "ORTSTEIL": "Friedrichshain", "PLZ": "10245", "STANDORT": "Rudolfstraße (U-Bahnhof Warschauer Str.)" }, "geometry": { "type": "Point", "coordinates": [ 13.44997243, 52.50521342 ] } },
{ "type": "Feature", "properties": { "ANZAHL": "1", "BEMERKUNG": "Durchgehend", "ORTSTEIL": "Kreuzberg", "PLZ": "10963", "STANDORT": "Ruhlsdorfer Straße 2" }, "geometry": { "type": "Point", "coordinates": [ 13.38784492, 52.49736411 ] } },
{ "type": "Feature", "properties": { "ANZAHL": "1", "BEMERKUNG": "Mo-Fr 8-16h", "ORTSTEIL": "Friedrichshain", "PLZ": "10247", "STANDORT": "Samariterstraße 38" }, "geometry": { "type": "Point", "coordinates": [ 13.46459238, 52.51546237 ] } },
{ "type": "Feature", "properties": { "ANZAHL": "1", "BEMERKUNG": "(täglich) 9-23h", "ORTSTEIL": "Kreuzberg", "PLZ": "10961", "STANDORT": "Schleiermacher Straße 24 a" }, "geometry": { "type": "Point", "coordinates": [ 13.39751348, 52.48962588 ] } },
{ "type": "Feature", "properties": { "ANZAHL": "1", "BEMERKUNG": "Mo-Fr 8-16h", "ORTSTEIL": "Friedrichshain", "PLZ": "10247", "STANDORT": "Schreinerstraße 7" }, "geometry": { "type": "Point", "coordinates": [ 13.46400275, 52.51756204 ] } },
{ "type": "Feature", "properties": { "ANZAHL": "1", "BEMERKUNG": "Mo-Fr 6-18h", "ORTSTEIL": "Kreuzberg", "PLZ": "10965", "STANDORT": "Schwiebusser Straße 5" }, "geometry": { "type": "Point", "coordinates": [ 13.39283369, 52.48588864 ] } },
{ "type": "Feature", "properties": { "ANZAHL": "1", "BEMERKUNG": "Mo-Fr 8-18h", "ORTSTEIL": "Kreuzberg", "PLZ": "10999", "STANDORT": "Skalitzer Straße 35" }, "geometry": { "type": "Point", "coordinates": [ 13.42560287, 52.49895717 ] } },
{ "type": "Feature", "properties": { "ANZAHL": "1", "BEMERKUNG": "Durchgehend", "ORTSTEIL": "Kreuzberg", "PLZ": "10999", "STANDORT": "Skalitzer Straße 36" }, "geometry": { "type": "Point", "coordinates": [ 13.42619385, 52.49876696 ] } },
{ "type": "Feature", "properties": { "ANZAHL": "2", "BEMERKUNG": "(täglich) 18-23h", "ORTSTEIL": "Kreuzberg", "PLZ": "10963", "STANDORT": "Stresemannstraße 29" }, "geometry": { "type": "Point", "coordinates": [ 13.38767686, 52.5000438 ] } },
{ "type": "Feature", "properties": { "ANZAHL": "4", "BEMERKUNG": "Mi 18-21h, So 9-12h und 18-21h", "ORTSTEIL": "Kreuzberg", "PLZ": "10961", "STANDORT": "Südstern" }, "geometry": { "type": "Point", "coordinates": [ 13.40568497, 52.48928286 ] } },
{ "type": "Feature", "properties": { "ANZAHL": "1", "BEMERKUNG": "Mo-Fr 8-21h", "ORTSTEIL": "Kreuzberg", "PLZ": "10967", "STANDORT": "Urbanstraße 100" }, "geometry": { "type": "Point", "coordinates": [ 13.42158624, 52.4893743 ] } },
{ "type": "Feature", "properties": { "ANZAHL": "2", "BEMERKUNG": "Durchgehend", "ORTSTEIL": "Friedrichshain", "PLZ": "10245", "STANDORT": "Warschauer Platz U-Bahnhof" }, "geometry": { "type": "Point", "coordinates": [ 13.44949084, 52.50498254 ] } },
{ "type": "Feature", "properties": { "ANZAHL": "1", "BEMERKUNG": "Mo-Fr 9-18h, Sa 9 -14h", "ORTSTEIL": "Kreuzberg", "PLZ": "10999", "STANDORT": "Wiener Straße 17 / 18" }, "geometry": { "type": "Point", "coordinates": [ 13.43066834, 52.49777491 ] } },
{ "type": "Feature", "properties": { "ANZAHL": "3", "BEMERKUNG": "Durchgehend", "ORTSTEIL": "Kreuzberg", "PLZ": "10999", "STANDORT": "Wiener Straße 59 h (Spreewaldplatz)" }, "geometry": { "type": "Point", "coordinates": [ 13.43241785, 52.49728766 ] } },
{ "type": "Feature", "properties": { "ANZAHL": "1", "BEMERKUNG": "Mo-Fr 9-16h", "ORTSTEIL": "Kreuzberg", "PLZ": "10963", "STANDORT": "Wilhelmstraße 115" }, "geometry": { "type": "Point", "coordinates": [ 13.38691896, 52.50457757 ] } },
{ "type": "Feature", "properties": { "ANZAHL": "1", "BEMERKUNG": "Mo-Fr 8-18h", "ORTSTEIL": "Kreuzberg", "PLZ": "10963", "STANDORT": "Wilhelmstraße 139" }, "geometry": { "type": "Point", "coordinates": [ 13.38861825, 52.50065752 ] } },
{ "type": "Feature", "properties": { "ANZAHL": "3", "BEMERKUNG": "Mo-Fr 7-20h", "ORTSTEIL": "Kreuzberg", "PLZ": "10997", "STANDORT": "Wrangelstraße 30/31" }, "geometry": { "type": "Point", "coordinates": [ 13.43389963, 52.50183923 ] } },
{ "type": "Feature", "properties": { "ANZAHL": "2", "BEMERKUNG": "während der Öffnungszeiten Bezirksamtes", "ORTSTEIL": "Kreuzberg", "PLZ": "10965", "STANDORT": "Yorckstraße 4 - 11 (auf dem Hof)" }, "geometry": { "type": "Point", "coordinates": [ 13.38551423, 52.49399707 ] } },
{ "type": "Feature", "properties": { "ANZAHL": "2", "BEMERKUNG": "Mo-Fr 8-17h", "ORTSTEIL": "Kreuzberg", "PLZ": "10961", "STANDORT": "Zossener Straße 24" }, "geometry": { "type": "Point", "coordinates": [ 13.39382736, 52.48972418 ] } },
{ "type": "Feature", "properties": { "ANZAHL": "1", "BEMERKUNG": "Durchgehend", "ORTSTEIL": "Kreuzberg", "PLZ": "10997", "STANDORT": "Görlitzer Park" }, "geometry": { "type": "Point", "coordinates": [ 13.43582023, 52.49801707 ] } },
{ "type": "Feature", "properties": { "ANZAHL": "1", "BEMERKUNG": "Mo-Fr 7.30-19.30h", "ORTSTEIL": "Kreuzberg", "PLZ": "10969", "STANDORT": "Markgrafenstraße 19" }, "geometry": { "type": "Point", "coordinates": [ 13.39449314, 52.50667109 ] } },
{ "type": "Feature", "properties": { "ANZAHL": "1", "BEMERKUNG": "Mo,Di,Do,Fr 8-14h, Mi 14-18h", "ORTSTEIL": "Kreuzberg", "PLZ": "10999", "STANDORT": "Dresdener Straße 20" }, "geometry": { "type": "Point", "coordinates": [ 13.41657089, 52.50162511 ] } },
{ "type": "Feature", "properties": { "ANZAHL": "2", "BEMERKUNG": "Mo-So 9-20h", "ORTSTEIL": "Kreuzberg", "PLZ": "10969", "STANDORT": "Markgrafenstraße 87" }, "geometry": { "type": "Point", "coordinates": [ 13.39486158, 52.50335605 ] } },
{ "type": "Feature", "properties": { "ANZAHL": "1", "BEMERKUNG": "Mo-Fr 10-17h", "ORTSTEIL": "Kreuzberg", "PLZ": "10999", "STANDORT": "Admiralstraße (vor) 1" }, "geometry": { "type": "Point", "coordinates": [ 13.4170524, 52.49825599 ] } },
{ "type": "Feature", "properties": { "ANZAHL": "2", "BEMERKUNG": "Durchgehend", "ORTSTEIL": "Friedrichshain", "PLZ": "10243", "STANDORT": "Frankfurter Allee 14a (Bibliothek)" }, "geometry": { "type": "Point", "coordinates": [ 13.4573723, 52.51487255 ] } }
]
}
